OBJECT_NAME,OBJECT_ID,EPOCH,MEAN_MOTION,ECCENTRICITY,INCLINATION,RA_OF_ASC_NODE,ARG_OF_PERICENTER,MEAN_ANOMALY,EPHEMERIS_TYPE,CLASSIFICATION_TYPE,NORAD_CAT_ID,ELEMENT_SET_NO,REV_AT_EPOCH,BSTAR,MEAN_MOTION_DOT,MEAN_MOTION_DDOT
IRIDIUM 135,2017-083A,2026-06-17T22:03:23.219136,14.34217310,.00020686,86.3961,321.7094,91.5646,268.5787,0,U,43070,999,44425,-.10297063E-4,-.9E-7,0
IRIDIUM 138,2017-083B,2026-06-17T22:39:55.143072,14.34217799,.00023094,86.3979,321.3942,87.0675,273.0785,0,U,43071,999,44424,.24349727E-4,.88E-6,0
IRIDIUM 116,2017-083C,2026-06-17T23:34:43.127040,14.34217536,.00018781,86.3960,321.6688,99.6975,260.4433,0,U,43072,999,44428,-.9029542E-5,-.6E-7,0
IRIDIUM 130,2017-083D,2026-06-17T22:49:02.872416,14.34219098,.00019426,86.3972,321.9572,92.8405,267.3013,0,U,43073,999,44422,.44814761E-4,.145E-5,0
IRIDIUM 151,2017-083E,2026-06-17T22:12:31.216320,14.34217308,.00020515,86.3962,321.7506,93.2538,266.8893,0,U,43074,999,44424,-.10563676E-4,-.1E-6,0
IRIDIUM 134,2017-083F,2026-06-17T23:07:19.210656,14.34217033,.00020013,86.3963,321.7426,92.0027,268.1398,0,U,43075,999,44421,-.26116664E-4,-.53E-6,0
IRIDIUM 137,2017-083G,2026-06-17T21:45:07.153920,14.34217657,.000218,86.3965,321.8594,104.4062,255.7376,0,U,43076,999,44427,-.2468746E-5,.13E-6,0
IRIDIUM 141,2017-083H,2026-06-17T23:16:27.136992,14.34217800,.00022185,86.3964,321.6631,90.9645,269.1805,0,U,43077,999,44428,.1663126E-5,.24E-6,0
IRIDIUM 153,2017-083J,2026-06-18T06:29:55.461120,14.34217601,.00022434,86.3961,290.0176,89.6647,270.4805,0,U,43078,999,44543,.2373991E-5,.26E-6,0
IRIDIUM 131,2017-083K,2026-06-17T22:58:11.069184,14.34217351,.00022028,86.3970,321.8543,91.6071,268.5377,0,U,43079,999,44421,.22388902E-4,.82E-6,0
IRIDIUM 144,2018-030A,2026-06-18T06:39:03.406464,14.34217270,.0002108,86.3959,289.9439,97.2777,262.8659,0,U,43249,999,43029,.51388835E-4,.164E-5,0
IRIDIUM 149,2018-030B,2026-06-17T20:45:23.467680,14.34217604,.00022633,86.3958,290.0834,93.5840,266.5615,0,U,43250,999,43025,.7842473E-5,.42E-6,0
IRIDIUM 157,2018-030C,2026-06-17T21:12:47.477376,14.34217211,.00020995,86.3956,290.1289,93.9207,266.2229,0,U,43251,999,43023,-.16233914E-4,-.26E-6,0
IRIDIUM 140,2018-030D,2026-06-18T07:42:59.443776,14.34217471,.00020273,86.3955,289.9585,93.8500,266.2928,0,U,43252,999,43035,-.2507557E-5,.13E-6,0
IRIDIUM 145,2018-030E,2026-06-17T21:21:55.436544,14.34217426,.00020193,86.3960,290.1108,101.3483,258.7940,0,U,43253,999,43022,.2742313E-5,.27E-6,0
IRIDIUM 146,2018-030F,2026-06-18T06:57:19.167552,14.34219163,.00021304,86.3960,289.9560,96.9137,263.2301,0,U,43254,999,43029,.48688906E-4,.156E-5,0
IRIDIUM 148,2018-030G,2026-06-18T07:52:07.472928,14.34217487,.00021511,86.3958,289.9835,96.1418,264.0023,0,U,43255,999,43033,-.4668482E-5,.7E-7,0
IRIDIUM 142,2018-030H,2026-06-18T07:06:27.470592,14.34217244,.00020189,86.3954,289.8856,99.2670,260.8754,0,U,43256,999,43029,-.479853E-5,.6E-7,0
IRIDIUM 150,2018-030J,2026-06-18T06:20:47.425056,14.34217786,.00021537,86.3960,290.0151,93.8168,266.3274,0,U,43257,999,43031,.10473918E-4,.49E-6,0
IRIDIUM 143,2018-030K,2026-06-18T07:33:51.446592,14.34217321,.00019962,86.3960,290.0866,96.8190,263.3233,0,U,43258,999,43025,-.2956331E-5,.12E-6,0
IRIDIUM 161,2018-047C,2026-06-18T05:00:53.998848,14.43278772,.0002579,86.4482,88.0438,84.2526,275.8969,0,U,43478,999,42528,.53549795E-4,.2E-5,0
IRIDIUM 152,2018-047D,2026-06-17T20:51:46.359648,14.34217225,.00023399,86.3957,88.0472,82.7690,277.3771,0,U,43479,999,42258,.49223713E-4,.158E-5,0
IRIDIUM 147,2018-047E,2026-06-17T21:00:54.291168,14.34217471,.0002031,86.3959,88.0496,85.7468,274.3960,0,U,43480,999,42258,-.3051517E-5,.11E-6,0
IRIDIUM 110,2018-047F,2026-06-18T05:32:22.377984,14.34217781,.00025623,86.3961,87.9931,81.5818,278.5668,0,U,43481,999,42262,.4949462E-4,.158E-5,0
IRIDIUM 162,2018-047G,2026-06-18T04:51:50.083200,14.43282192,.00022563,86.4482,87.9377,82.3492,277.7965,0,U,43482,999,42527,.76581253E-4,.278E-5,0
IRIDIUM 160,2018-061A,2026-06-18T04:14:22.474464,14.34217605,.00021592,86.3960,56.3836,85.6574,274.4868,0,U,43569,999,41351,-.5069646E-5,.6E-7,0
IRIDIUM 166,2018-061B,2026-06-18T03:10:26.481216,14.34217498,.000201,86.3959,56.3526,86.8873,273.2553,0,U,43570,999,41353,-.5832297E-5,.3E-7,0
IRIDIUM 158,2018-061C,2026-06-18T02:24:46.459008,14.34217345,.00020892,86.3959,56.3759,82.4289,277.7144,0,U,43571,999,41349,-.6180555E-5,.2E-7,0
IRIDIUM 165,2018-061D,2026-06-18T03:01:18.450336,14.34217464,.00020642,86.3962,56.4118,87.1563,272.9869,0,U,43572,999,41352,.16318961E-4,.65E-6,0
IRIDIUM 155,2018-061E,2026-06-18T03:46:58.466496,14.34217806,.00021115,86.3958,56.2675,83.4116,276.7320,0,U,43573,999,41349,.1008582E-4,.48E-6,0
