IRIDIUM 135             
1 43070U 17083A   26168.91901874 -.00000009  00000+0 -10297-4 0  9998
2 43070  86.3961 321.7094 0002068  91.5646 268.5787 14.34217310444250
IRIDIUM 138             
1 43071U 17083B   26168.94438823  .00000088  00000+0  24350-4 0  9991
2 43071  86.3979 321.3942 0002309  87.0675 273.0785 14.34217799444247
IRIDIUM 116             
1 43072U 17083C   26168.98244360 -.00000006  00000+0 -90295-5 0  9991
2 43072  86.3960 321.6688 0001878  99.6975 260.4433 14.34217536444283
IRIDIUM 130             
1 43073U 17083D   26168.95072769  .00000145  00000+0  44815-4 0  9999
2 43073  86.3972 321.9572 0001942  92.8405 267.3013 14.34219098444226
IRIDIUM 151             
1 43074U 17083E   26168.92536130 -.00000010  00000+0 -10564-4 0  9991
2 43074  86.3962 321.7506 0002051  93.2538 266.8893 14.34217308444249
IRIDIUM 134             
1 43075U 17083F   26168.96341679 -.00000053  00000+0 -26117-4 0  9996
2 43075  86.3963 321.7426 0002001  92.0027 268.1398 14.34217033444214
IRIDIUM 137             
1 43076U 17083G   26168.90633280  .00000013  00000+0 -24687-5 0  9999
2 43076  86.3965 321.8594 0002180 104.4062 255.7376 14.34217657444275
IRIDIUM 141             
1 43077U 17083H   26168.96975853  .00000024  00000+0  16631-5 0  9992
2 43077  86.3964 321.6631 0002218  90.9645 269.1805 14.34217800444280
IRIDIUM 153             
1 43078U 17083J   26169.27078080  .00000026  00000+0  23740-5 0  9995
2 43078  86.3961 290.0176 0002243  89.6647 270.4805 14.34217601445438
IRIDIUM 131             
1 43079U 17083K   26168.95707256  .00000082  00000+0  22389-4 0  9993
2 43079  86.3970 321.8543 0002202  91.6071 268.5377 14.34217351444218
IRIDIUM 144             
1 43249U 18030A   26169.27712276  .00000164  00000+0  51389-4 0  9992
2 43249  86.3959 289.9439 0002108  97.2777 262.8659 14.34217270430295
IRIDIUM 149             
1 43250U 18030B   26168.86485495  .00000042  00000+0  78425-5 0  9994
2 43250  86.3958 290.0834 0002263  93.5840 266.5615 14.34217604430250
IRIDIUM 157             
1 43251U 18030C   26168.88388284 -.00000026  00000+0 -16234-4 0  9998
2 43251  86.3956 290.1289 0002099  93.9207 266.2229 14.34217211430232
IRIDIUM 140             
1 43252U 18030D   26169.32152134  .00000013  00000+0 -25076-5 0  9992
2 43252  86.3955 289.9585 0002027  93.8500 266.2928 14.34217471430350
IRIDIUM 145             
1 43253U 18030E   26168.89022496  .00000027  00000+0  27423-5 0  9993
2 43253  86.3960 290.1108 0002019 101.3483 258.7940 14.34217426430224
IRIDIUM 146             
1 43254U 18030F   26169.28980518  .00000156  00000+0  48689-4 0  9995
2 43254  86.3960 289.9560 0002130  96.9137 263.2301 14.34219163430291
IRIDIUM 148             
1 43255U 18030G   26169.32786427  .00000007  00000+0 -46685-5 0  9995
2 43255  86.3958 289.9835 0002151  96.1418 264.0023 14.34217487430333
IRIDIUM 142             
1 43256U 18030H   26169.29615128  .00000006  00000+0 -47985-5 0  9994
2 43256  86.3954 289.8856 0002018  99.2670 260.8754 14.34217244430299
IRIDIUM 150             
1 43257U 18030J   26169.26443779  .00000049  00000+0  10474-4 0  9991
2 43257  86.3960 290.0151 0002153  93.8168 266.3274 14.34217786430313
IRIDIUM 143             
1 43258U 18030K   26169.31517878  .00000012  00000+0 -29563-5 0  9991
2 43258  86.3960 290.0866 0001996  96.8190 263.3233 14.34217321430259
IRIDIUM 161             
1 43478U 18047C   26169.20895832  .00000200  00000+0  53550-4 0  9990
2 43478  86.4482  88.0438 0002579  84.2526 275.8969 14.43278772425283
IRIDIUM 152             
1 43479U 18047D   26168.86928657  .00000158  00000+0  49224-4 0  9999
2 43479  86.3957  88.0472 0002339  82.7690 277.3771 14.34217225422581
IRIDIUM 147             
1 43480U 18047E   26168.87562837  .00000011  00000+0 -30515-5 0  9999
2 43480  86.3959  88.0496 0002031  85.7468 274.3960 14.34217471422586
IRIDIUM 110             
1 43481U 18047F   26169.23081456  .00000158  00000+0  49495-4 0  9991
2 43481  86.3961  87.9931 0002562  81.5818 278.5668 14.34217781422624
IRIDIUM 162             
1 43482U 18047G   26169.20266300  .00000278  00000+0  76581-4 0  9991
2 43482  86.4482  87.9377 0002256  82.3492 277.7965 14.43282192425278
IRIDIUM 160             
1 43569U 18061A   26169.17664901  .00000006  00000+0 -50696-5 0  9998
2 43569  86.3960  56.3836 0002159  85.6574 274.4868 14.34217605413510
IRIDIUM 166             
1 43570U 18061B   26169.13225094  .00000003  00000+0 -58323-5 0  9994
2 43570  86.3959  56.3526 0002010  86.8873 273.2553 14.34217498413537
IRIDIUM 158             
1 43571U 18061C   26169.10053772  .00000002  00000+0 -61806-5 0  9993
2 43571  86.3959  56.3759 0002089  82.4289 277.7144 14.34217345413496
IRIDIUM 165             
1 43572U 18061D   26169.12590799  .00000065  00000+0  16319-4 0  9997
2 43572  86.3962  56.4118 0002064  87.1563 272.9869 14.34217464413528
IRIDIUM 155             
1 43573U 18061E   26169.15762114  .00000048  00000+0  10086-4 0  9999
2 43573  86.3958  56.2675 0002111  83.4116 276.7320 14.34217806413496
